BEIDOU-2 M4             
1 38251U 12018B   26164.36225567 -.00000070  00000+0  00000+0 0  9992
2 38251  55.6617 304.2191 0011287 276.0779  83.7740  1.86229521 95872
ARIRANG-3 (KOMPSAT-3)   
1 38338U 12025B   26166.18508328  .00000361  00000+0  80871-4 0  9998
2 38338  98.1176 123.6795 0006610 114.4264 245.7628 14.62204582751053
METOP-B                 
1 38771U 12049A   26166.14827639  .00000090  00000+0  60794-4 0  9991
2 38771  98.6505 217.6881 0002356  24.6800 335.4490 14.21432171712970
SJ-9A                   
1 38860U 12056A   26166.14365806  .00000808  00000+0  99329-4 0  9994
2 38860  97.6708 138.1690 0023953 263.8485  96.0001 14.85474914699287
COSMOS 2484 (RODNIK-S 6)
1 39059U 13001C   26166.13373910  .00000150  00000+0  10077-2 0  9991
2 39059  82.5023 223.1690 0026957  41.0027 319.3073 12.42939378608305
SARAL                   
1 39086U 13009A   26165.94599158  .00000081  00000+0  45892-4 0  9999
2 39086  98.5556 352.5416 0000817 323.5406  36.5722 14.32855455695288
STRAND-1                
1 39090U 13009E   26165.75848833  .00000234  00000+0  92916-4 0  9999
2 39090  98.3921 346.0527 0007612 233.5298 126.5188 14.37162022696718
BRITE-AUSTRIA           
1 39091U 13009F   26165.77031524  .00000147  00000+0  64593-4 0  9996
2 39091  98.3993 345.2659 0009062 244.6230 115.4018 14.36541228696701
GAOFEN-1                
1 39150U 13018A   26165.96222324  .00000659  00000+0  10161-3 0  9992
2 39150  97.9102 238.0750 0015711 274.2864  85.6551 14.76534617707919
NEE-01 PEGASO           
1 39151U 13018B   26165.31799982  .00002150  00000+0  20906-3 0  9997
2 39151  98.1215 309.3736 0012835 168.5620 191.5892 14.93647786710272
PROBA-V                 
1 39159U 13021A   26166.22146684  .00000050  00000+0  39774-4 0  9996
2 39159  98.3583 144.9251 0005064 127.9948 232.1690 14.23596587680834
ARIRANG-5 (KOMPSAT-5)   
1 39227U 13042A   26166.17082058  .00001159  00000+0  87144-4 0  9998
2 39227  97.6205 352.9000 0005234 124.8435 235.3284 15.04486149703553
GONETS-M 5              
1 39249U 13048A   26166.18298853  .00000028  00000+0  12904-3 0  9996
2 39249  82.4826 344.6324 0015999 215.0073 144.9956 12.42891884578630
GONETS-M 7              
1 39251U 13048C   26166.14598280  .00000070  00000+0  43182-3 0  9991
2 39251  82.4893 347.5768 0016781 216.4625 143.5313 12.42914890578588
FENGYUN 3C              
1 39260U 13052A   26166.20630355  .00000037  00000+0  39738-4 0  9999
2 39260  98.4986 140.1720 0015347  33.1084 327.1048 14.15754560658282
CASSIOPE                
1 39265U 13055A   26165.99695375  .00046594 -47781-6  50998-3 0  9998
2 39265  80.9158  69.3815 0293439  69.7930 293.4597 15.25000830667332
APRIZESAT 7             
1 39416U 13066A   26166.14139458  .00001056  00000+0  10988-3 0  9995
2 39416  97.7709 119.3907 0034836 216.1827 143.7035 14.91560106680926
ZACUBE-1 (TSHEPISOSAT)  
1 39417U 13066B   26166.14099514  .00003020  00000+0  23640-3 0  9996
2 39417  97.8083 128.4670 0040580 254.8393 104.8341 15.01179105680421
APRIZESAT 8             
1 39425U 13066K   26166.12361098  .00000858  00000+0  98931-4 0  9994
2 39425  97.8221 113.6202 0044495 293.5945  66.0602 14.87649416679363
TRITON-1                
1 39427U 13066M   26166.13461199  .00002216  00000+0  26990-3 0  9995
2 39427  97.8256  75.9889 0088377 240.7354 118.5003 14.81702647673787
