OBJECT_NAME,OBJECT_ID,EPOCH,MEAN_MOTION,ECCENTRICITY,INCLINATION,RA_OF_ASC_NODE,ARG_OF_PERICENTER,MEAN_ANOMALY,EPHEMERIS_TYPE,CLASSIFICATION_TYPE,NORAD_CAT_ID,ELEMENT_SET_NO,REV_AT_EPOCH,BSTAR,MEAN_MOTION_DOT,MEAN_MOTION_DDOT
BEIDOU-2 M4,2012-018B,2026-06-13T08:41:38.889888,1.86229521,.00112871,55.6617,304.2191,276.0779,83.7740,0,U,38251,999,9587,0,-.7E-6,0
ARIRANG-3 (KOMPSAT-3),2012-025B,2026-06-15T04:26:31.195392,14.62204582,.000661,98.1176,123.6795,114.4264,245.7628,0,U,38338,999,75105,.80871E-4,.361E-5,0
METOP-B,2012-049A,2026-06-15T03:33:31.080096,14.21432171,.0002356,98.6505,217.6881,24.6800,335.4490,0,U,38771,999,71297,.60794E-4,.9E-6,0
SJ-9A,2012-056A,2026-06-15T03:26:52.056384,14.85474914,.0023953,97.6708,138.1690,263.8485,96.0001,0,U,38860,999,69928,.99329E-4,.808E-5,0
COSMOS 2484 (RODNIK-S 6),2013-001C,2026-06-15T03:12:35.058240,12.42939378,.0026957,82.5023,223.1690,41.0027,319.3073,0,U,39059,999,60830,.10077E-2,.15E-5,0
SARAL,2013-009A,2026-06-14T22:42:13.672512,14.32855455,.00008178,98.5556,352.5416,323.5406,36.5722,0,U,39086,999,69528,.45891741E-4,.81E-6,0
STRAND-1,2013-009E,2026-06-14T18:12:13.391712,14.37162022,.00076124,98.3921,346.0527,233.5298,126.5188,0,U,39090,999,69671,.92915931E-4,.234E-5,0
BRITE-AUSTRIA,2013-009F,2026-06-14T18:29:15.236736,14.36541228,.00090624,98.3993,345.2659,244.6230,115.4018,0,U,39091,999,69670,.64592678E-4,.147E-5,0
GAOFEN-1,2013-018A,2026-06-14T23:05:36.087936,14.76534617,.0015711,97.9102,238.0750,274.2864,85.6551,0,U,39150,999,70791,.10160685E-3,.659E-5,0
NEE-01 PEGASO,2013-018B,2026-06-14T07:37:55.184448,14.93647786,.00128351,98.1215,309.3736,168.5620,191.5892,0,U,39151,999,71027,.20906406E-3,.215E-4,0
PROBA-V,2013-021A,2026-06-15T05:18:54.734976,14.23596587,.0005064,98.3583,144.9251,127.9948,232.1690,0,U,39159,999,68083,.39774E-4,.5E-6,0
ARIRANG-5 (KOMPSAT-5),2013-042A,2026-06-15T04:05:58.898112,15.04486149,.0005234,97.6205,352.9000,124.8435,235.3284,0,U,39227,999,70355,.87144E-4,.1159E-4,0
GONETS-M 5,2013-048A,2026-06-15T04:23:30.208992,12.42891884,.0015999,82.4826,344.6324,215.0073,144.9956,0,U,39249,999,57863,.12904E-3,.28E-6,0
GONETS-M 7,2013-048C,2026-06-15T03:30:12.913920,12.42914890,.0016781,82.4893,347.5768,216.4625,143.5313,0,U,39251,999,57858,.43182E-3,.7E-6,0
FENGYUN 3C,2013-052A,2026-06-15T04:57:04.626720,14.15754560,.0015347,98.4986,140.1720,33.1084,327.1048,0,U,39260,999,65828,.39738E-4,.37E-6,0
CASSIOPE,2013-055A,2026-06-14T23:55:36.804000,15.25000830,.0293439,80.9158,69.3815,69.7930,293.4597,0,U,39265,999,66733,.50998E-3,.46594E-3,-.47781E-6
APRIZESAT 7,2013-066A,2026-06-15T03:23:36.491712,14.91560106,.0034836,97.7709,119.3907,216.1827,143.7035,0,U,39416,999,68092,.10988E-3,.1056E-4,0
ZACUBE-1 (TSHEPISOSAT),2013-066B,2026-06-15T03:23:01.980096,15.01179105,.004058,97.8083,128.4670,254.8393,104.8341,0,U,39417,999,68042,.2364E-3,.302E-4,0
APRIZESAT 8,2013-066K,2026-06-15T02:57:59.988672,14.87649416,.0044495,97.8221,113.6202,293.5945,66.0602,0,U,39425,999,67936,.98931E-4,.858E-5,0
TRITON-1,2013-066M,2026-06-15T03:13:50.475936,14.81702647,.0088377,97.8256,75.9889,240.7354,118.5003,0,U,39427,999,67378,.2699E-3,.2216E-4,0
